{
  "type": "FeatureCollection",
  "features": [
    {
      "type": "Feature",
      "properties": {
        "norad_id": 40362,
        "name": "YAOGAN-26",
        "group": "resource",
        "lat": -75.94440612981084,
        "lon": 9.312368065704703,
        "alt_km": 459.9302600244446,
        "timestamp": "2025-12-04T15:47:53.753244+00:00",
        "meta_object_name": "YAOGAN-26",
        "meta_object_id": "2014-088A",
        "meta_epoch": "2025-12-04T06:46:20.378784",
        "meta_mean_motion": 15.38844678,
        "meta_eccentricity": 0.00072594,
        "meta_inclination": 97.0637,
        "meta_ra_of_asc_node": 339.2608,
        "meta_arg_of_pericenter": 52.855,
        "meta_mean_anomaly": 307.3358,
        "meta_ephemeris_type": 0,
        "meta_classification_type": "U",
        "meta_norad_cat_id": 40362,
        "meta_element_set_no": 999,
        "meta_rev_at_epoch": 60764,
        "meta_bstar": 0.00099329179,
        "meta_mean_motion_dot": 0.00038255,
        "meta_mean_motion_ddot": 0,
        "tle_line1": "1 40362U 14088A   25338.28218031  .00038255  00000+0  99329-3 0  9999",
        "tle_line2": "2 40362  97.0637 339.2608 0007259  52.8550 307.3358 15.38844678607644"
      },
      "geometry": {
        "type": "Point",
        "coordinates": [
          9.312368065704703,
          -75.94440612981084
        ]
      }
    },
    {
      "type": "Feature",
      "properties": {
        "norad_id": 40376,
        "name": "SMAP",
        "group": "resource",
        "lat": -30.646971743947354,
        "lon": 158.6405582498145,
        "alt_km": 688.9308975237927,
        "timestamp": "2025-12-04T15:47:53.753255+00:00",
        "meta_object_name": "SMAP",
        "meta_object_id": "2015-003A",
        "meta_epoch": "2025-12-04T06:37:56.036928",
        "meta_mean_motion": 14.63328551,
        "meta_eccentricity": 0.00012084,
        "meta_inclination": 98.1291,
        "meta_ra_of_asc_node": 343.1223,
        "meta_arg_of_pericenter": 87.057,
        "meta_mean_anomaly": 273.0771,
        "meta_ephemeris_type": 0,
        "meta_classification_type": "U",
        "meta_norad_cat_id": 40376,
        "meta_element_set_no": 999,
        "meta_rev_at_epoch": 57911,
        "meta_bstar": 0.00022366238,
        "meta_mean_motion_dot": 1.108e-05,
        "meta_mean_motion_ddot": 0,
        "tle_line1": "1 40376U 15003A   25338.27634302  .00001108  00000+0  22366-3 0  9998",
        "tle_line2": "2 40376  98.1291 343.1223 0001208  87.0570 273.0771 14.63328551579116"
      },
      "geometry": {
        "type": "Point",
        "coordinates": [
          158.6405582498145,
          -30.646971743947354
        ]
      }
    },
    {
      "type": "Feature",
      "properties": {
        "norad_id": 40536,
        "name": "KOMPSAT-3A",
        "group": "resource",
        "lat": 81.92629241945131,
        "lon": -119.42471685711863,
        "alt_km": 426.82765060638303,
        "timestamp": "2025-12-04T15:47:53.753265+00:00",
        "meta_object_name": "KOMPSAT-3A",
        "meta_object_id": "2015-014A",
        "meta_epoch": "2025-12-04T07:38:27.306240",
        "meta_mean_motion": 15.4348426,
        "meta_eccentricity": 0.00038713,
        "meta_inclination": 97.6774,
        "meta_ra_of_asc_node": 312.2032,
        "meta_arg_of_pericenter": 144.5685,
        "meta_mean_anomaly": 215.582,
        "meta_ephemeris_type": 0,
        "meta_classification_type": "U",
        "meta_norad_cat_id": 40536,
        "meta_element_set_no": 999,
        "meta_rev_at_epoch": 59165,
        "meta_bstar": 0.00079468655,
        "meta_mean_motion_dot": 0.0003563,
        "meta_mean_motion_ddot": 0,
        "tle_line1": "1 40536U 15014A   25338.31837160  .00035630  00000+0  79469-3 0  9993",
        "tle_line2": "2 40536  97.6774 312.2032 0003871 144.5685 215.5820 15.43484260591651"
      },
      "geometry": {
        "type": "Point",
        "coordinates": [
          -119.42471685711863,
          81.92629241945131
        ]
      }
    },
    {
      "type": "Feature",
      "properties": {
        "norad_id": 40697,
        "name": "SENTINEL-2A",
        "group": "resource",
        "lat": -55.50188668862636,
        "lon": 63.9816963291594,
        "alt_km": 796.6362910197759,
        "timestamp": "2025-12-04T15:47:53.753276+00:00",
        "meta_object_name": "SENTINEL-2A",
        "meta_object_id": "2015-028A",
        "meta_epoch": "2025-12-04T07:40:12.467136",
        "meta_mean_motion": 14.30822376,
        "meta_eccentricity": 0.00010331,
        "meta_inclination": 98.5702,
        "meta_ra_of_asc_node": 50.9722,
        "meta_arg_of_pericenter": 93.7384,
        "meta_mean_anomaly": 266.3917,
        "meta_ephemeris_type": 0,
        "meta_classification_type": "U",
        "meta_norad_cat_id": 40697,
        "meta_element_set_no": 999,
        "meta_rev_at_epoch": 54586,
        "meta_bstar": 0.00015026999,
        "meta_mean_motion_dot": 3.5e-06,
        "meta_mean_motion_ddot": 0,
        "tle_line1": "1 40697U 15028A   25338.31958874  .00000350  00000+0  15027-3 0  9993",
        "tle_line2": "2 40697  98.5702  50.9722 0001033  93.7384 266.3917 14.30822376545863"
      },
      "geometry": {
        "type": "Point",
        "coordinates": [
          63.9816963291594,
          -55.50188668862636
        ]
      }
    },
    {
      "type": "Feature",
      "properties": {
        "norad_id": 40701,
        "name": "GAOFEN-8",
        "group": "resource",
        "lat": 71.23310278631435,
        "lon": -0.15872566330296017,
        "alt_km": 440.83691826539507,
        "timestamp": "2025-12-04T15:47:53.753286+00:00",
        "meta_object_name": "GAOFEN-8",
        "meta_object_id": "2015-030A",
        "meta_epoch": "2025-12-04T07:31:37.380576",
        "meta_mean_motion": 15.38112155,
        "meta_eccentricity": 0.00112319,
        "meta_inclination": 97.6904,
        "meta_ra_of_asc_node": 156.046,
        "meta_arg_of_pericenter": 167.689,
        "meta_mean_anomaly": 192.463,
        "meta_ephemeris_type": 0,
        "meta_classification_type": "U",
        "meta_norad_cat_id": 40701,
        "meta_element_set_no": 999,
        "meta_rev_at_epoch": 58141,
        "meta_bstar": 0.0009840281,
        "meta_mean_motion_dot": 0.0003704,
        "meta_mean_motion_ddot": 0,
        "tle_line1": "1 40701U 15030A   25338.31362709  .00037040  00000+0  98403-3 0  9993",
        "tle_line2": "2 40701  97.6904 156.0460 0011231 167.6890 192.4630 15.38112155581412"
      },
      "geometry": {
        "type": "Point",
        "coordinates": [
          -0.15872566330296017,
          71.23310278631435
        ]
      }
    },
    {
      "type": "Feature",
      "properties": {
        "norad_id": 40718,
        "name": "CARBONITE 1 (CBNT-1)",
        "group": "resource",
        "lat": -34.51752428407137,
        "lon": -25.238348303941013,
        "alt_km": 617.4661535532559,
        "timestamp": "2025-12-04T15:47:53.753296+00:00",
        "meta_object_name": "CARBONITE 1 (CBNT-1)",
        "meta_object_id": "2015-032D",
        "meta_epoch": "2025-12-04T06:44:01.904640",
        "meta_mean_motion": 14.82681462,
        "meta_eccentricity": 0.0013875,
        "meta_inclination": 97.6398,
        "meta_ra_of_asc_node": 159.6974,
        "meta_arg_of_pericenter": 209.9431,
        "meta_mean_anomaly": 150.0991,
        "meta_ephemeris_type": 0,
        "meta_classification_type": "U",
        "meta_norad_cat_id": 40718,
        "meta_element_set_no": 999,
        "meta_rev_at_epoch": 56045,
        "meta_bstar": 0.00064264886,
        "meta_mean_motion_dot": 5.143e-05,
        "meta_mean_motion_ddot": 0,
        "tle_line1": "1 40718U 15032D   25338.28057760  .00005143  00000+0  64265-3 0  9995",
        "tle_line2": "2 40718  97.6398 159.6974 0013875 209.9431 150.0991 14.82681462560454"
      },
      "geometry": {
        "type": "Point",
        "coordinates": [
          -25.238348303941013,
          -34.51752428407137
        ]
      }
    },
    {
      "type": "Feature",
      "properties": {
        "norad_id": 40878,
        "name": "YAOGAN-27",
        "group": "resource",
        "lat": 70.90995455414716,
        "lon": -62.35422902310222,
        "alt_km": 1196.3990601544474,
        "timestamp": "2025-12-04T15:47:53.753307+00:00",
        "meta_object_name": "YAOGAN-27",
        "meta_object_id": "2015-040A",
        "meta_epoch": "2025-12-04T08:07:37.261344",
        "meta_mean_motion": 13.16059679,
        "meta_eccentricity": 0.00077244,
        "meta_inclination": 100.1005,
        "meta_ra_of_asc_node": 328.3389,
        "meta_arg_of_pericenter": 307.406,
        "meta_mean_anomaly": 52.635,
        "meta_ephemeris_type": 0,
        "meta_classification_type": "U",
        "meta_norad_cat_id": 40878,
        "meta_element_set_no": 999,
        "meta_rev_at_epoch": 49203,
        "meta_bstar": 6.5074744e-05,
        "meta_mean_motion_dot": -1.8e-07,
        "meta_mean_motion_ddot": 0,
        "tle_line1": "1 40878U 15040A   25338.33862571 -.00000018  00000+0  65075-4 0  9999",
        "tle_line2": "2 40878 100.1005 328.3389 0007724 307.4060  52.6350 13.16059679492038"
      },
      "geometry": {
        "type": "Point",
        "coordinates": [
          -62.35422902310222,
          70.90995455414716
        ]
      }
    }
  ]
}